DUCHIFAT-3              
1 44854U 19089C   20140.05352579  .00000249  00000-0  26554-4 0  9996
2 44854  36.9662 272.0967 0007796 195.0297 165.0214 14.99050481 23885
ORBITAL FACTORY 2 (OF-2)
1 45113U 19071C   20140.08959076  .00001336  00000-0  52506-4 0  9998
2 45113  51.6430 145.3855 0012787 313.8493  46.1431 15.33246824 16624
